{
  "type": "FeatureCollection",
  "features": [
    {
      "type": "Feature",
      "properties": {
        "norad_id": 37065,
        "name": "FENGYUN 1C DEB",
        "group": "fengyun-1c-debris",
        "lat": 60.72387379466677,
        "lon": 8.479755207608495,
        "alt_km": 1148.4203843384403,
        "timestamp": "2025-12-14T05:42:18.749358+00:00",
        "meta_object_name": "FENGYUN 1C DEB",
        "meta_object_id": "1999-025EEZ",
        "meta_epoch": "2025-12-08T18:22:24.057408",
        "meta_mean_motion": 13.59087735,
        "meta_eccentricity": 0.0299072,
        "meta_inclination": 103.286,
        "meta_ra_of_asc_node": 156.1612,
        "meta_arg_of_pericenter": 251.0293,
        "meta_mean_anomaly": 105.8204,
        "meta_ephemeris_type": 0,
        "meta_classification_type": "U",
        "meta_norad_cat_id": 37065,
        "meta_element_set_no": 999,
        "meta_rev_at_epoch": 22148,
        "meta_bstar": 0.0044200447,
        "meta_mean_motion_dot": 4.289e-05,
        "meta_mean_motion_ddot": 0,
        "tle_line1": "1 37065U 99025EEZ 25342.76555622  .00004289  00000+0  44200-2 0  9994",
        "tle_line2": "2 37065 103.2860 156.1612 0299072 251.0293 105.8204 13.59087735221481"
      },
      "geometry": {
        "type": "Point",
        "coordinates": [
          8.479755207608495,
          60.72387379466677
        ]
      }
    },
    {
      "type": "Feature",
      "properties": {
        "norad_id": 37067,
        "name": "FENGYUN 1C DEB",
        "group": "fengyun-1c-debris",
        "lat": 34.90782726729482,
        "lon": 116.59334563120252,
        "alt_km": 798.9819785155632,
        "timestamp": "2025-12-14T05:42:18.749368+00:00",
        "meta_object_name": "FENGYUN 1C DEB",
        "meta_object_id": "1999-025EFB",
        "meta_epoch": "2025-12-09T13:33:51.155424",
        "meta_mean_motion": 14.00251066,
        "meta_eccentricity": 0.0155817,
        "meta_inclination": 99.5374,
        "meta_ra_of_asc_node": 284.984,
        "meta_arg_of_pericenter": 120.3197,
        "meta_mean_anomaly": 241.3483,
        "meta_ephemeris_type": 0,
        "meta_classification_type": "U",
        "meta_norad_cat_id": 37067,
        "meta_element_set_no": 999,
        "meta_rev_at_epoch": 57364,
        "meta_bstar": 0.0044947,
        "meta_mean_motion_dot": 7.338e-05,
        "meta_mean_motion_ddot": 0,
        "tle_line1": "1 37067U 99025EFB 25343.56517541  .00007338  00000+0  44947-2 0  9999",
        "tle_line2": "2 37067  99.5374 284.9840 0155817 120.3197 241.3483 14.00251066573642"
      },
      "geometry": {
        "type": "Point",
        "coordinates": [
          116.59334563120252,
          34.90782726729482
        ]
      }
    },
    {
      "type": "Feature",
      "properties": {
        "norad_id": 37069,
        "name": "FENGYUN 1C DEB",
        "group": "fengyun-1c-debris",
        "lat": 53.00649452019957,
        "lon": -49.81666911864074,
        "alt_km": 1410.9560992152783,
        "timestamp": "2025-12-14T05:42:18.749378+00:00",
        "meta_object_name": "FENGYUN 1C DEB",
        "meta_object_id": "1999-025EFD",
        "meta_epoch": "2025-12-13T15:03:57.466080",
        "meta_mean_motion": 13.3798876,
        "meta_eccentricity": 0.04244193,
        "meta_inclination": 95.8483,
        "meta_ra_of_asc_node": 317.6492,
        "meta_arg_of_pericenter": 254.1915,
        "meta_mean_anomaly": 101.2052,
        "meta_ephemeris_type": 0,
        "meta_classification_type": "U",
        "meta_norad_cat_id": 37069,
        "meta_element_set_no": 999,
        "meta_rev_at_epoch": 87720,
        "meta_bstar": 0.0030740188,
        "meta_mean_motion_dot": 2.711e-05,
        "meta_mean_motion_ddot": 0,
        "tle_line1": "1 37069U 99025EFD 25347.62774845  .00002711  00000+0  30740-2 0  9990",
        "tle_line2": "2 37069  95.8483 317.6492 0424419 254.1915 101.2052 13.37988760877204"
      },
      "geometry": {
        "type": "Point",
        "coordinates": [
          -49.81666911864074,
          53.00649452019957
        ]
      }
    },
    {
      "type": "Feature",
      "properties": {
        "norad_id": 37077,
        "name": "FENGYUN 1C DEB",
        "group": "fengyun-1c-debris",
        "lat": 6.447500604946935,
        "lon": -115.51157390033713,
        "alt_km": 815.8513626700469,
        "timestamp": "2025-12-14T05:42:18.749389+00:00",
        "meta_object_name": "FENGYUN 1C DEB",
        "meta_object_id": "1999-025EFM",
        "meta_epoch": "2025-12-13T10:34:10.735392",
        "meta_mean_motion": 14.41198407,
        "meta_eccentricity": 0.00953337,
        "meta_inclination": 99.0351,
        "meta_ra_of_asc_node": 62.6157,
        "meta_arg_of_pericenter": 326.6002,
        "meta_mean_anomaly": 32.9194,
        "meta_ephemeris_type": 0,
        "meta_classification_type": "U",
        "meta_norad_cat_id": 37077,
        "meta_element_set_no": 999,
        "meta_rev_at_epoch": 84965,
        "meta_bstar": 0.00053876552,
        "meta_mean_motion_dot": 1.783e-05,
        "meta_mean_motion_ddot": 0,
        "tle_line1": "1 37077U 99025EFM 25347.44040203  .00001783  00000+0  53877-3 0  9998",
        "tle_line2": "2 37077  99.0351  62.6157 0095333 326.6002  32.9194 14.41198407849651"
      },
      "geometry": {
        "type": "Point",
        "coordinates": [
          -115.51157390033713,
          6.447500604946935
        ]
      }
    },
    {
      "type": "Feature",
      "properties": {
        "norad_id": 37079,
        "name": "FENGYUN 1C DEB",
        "group": "fengyun-1c-debris",
        "lat": 55.53804894638418,
        "lon": -43.56940477908907,
        "alt_km": 680.0081893539536,
        "timestamp": "2025-12-14T05:42:18.749399+00:00",
        "meta_object_name": "FENGYUN 1C DEB",
        "meta_object_id": "1999-025EFP",
        "meta_epoch": "2025-12-13T02:49:27.043104",
        "meta_mean_motion": 14.59894284,
        "meta_eccentricity": 0.00117235,
        "meta_inclination": 98.8571,
        "meta_ra_of_asc_node": 122.1025,
        "meta_arg_of_pericenter": 142.0543,
        "meta_mean_anomaly": 218.1483,
        "meta_ephemeris_type": 0,
        "meta_classification_type": "U",
        "meta_norad_cat_id": 37079,
        "meta_element_set_no": 999,
        "meta_rev_at_epoch": 64621,
        "meta_bstar": 0.0055286173,
        "meta_mean_motion_dot": 0.00026542,
        "meta_mean_motion_ddot": 0,
        "tle_line1": "1 37079U 99025EFP 25347.11767411  .00026542  00000+0  55286-2 0  9996",
        "tle_line2": "2 37079  98.8571 122.1025 0011723 142.0543 218.1483 14.59894284646212"
      },
      "geometry": {
        "type": "Point",
        "coordinates": [
          -43.56940477908907,
          55.53804894638418
        ]
      }
    },
    {
      "type": "Feature",
      "properties": {
        "norad_id": 37081,
        "name": "FENGYUN 1C DEB",
        "group": "fengyun-1c-debris",
        "lat": 69.63081490958649,
        "lon": 116.10084446351408,
        "alt_km": 826.3256332896199,
        "timestamp": "2025-12-14T05:42:18.749410+00:00",
        "meta_object_name": "FENGYUN 1C DEB",
        "meta_object_id": "1999-025EFR",
        "meta_epoch": "2025-12-11T04:20:52.810656",
        "meta_mean_motion": 14.13829604,
        "meta_eccentricity": 0.02642543,
        "meta_inclination": 98.708,
        "meta_ra_of_asc_node": 137.4998,
        "meta_arg_of_pericenter": 352.6633,
        "meta_mean_anomaly": 7.0706,
        "meta_ephemeris_type": 0,
        "meta_classification_type": "U",
        "meta_norad_cat_id": 37081,
        "meta_element_set_no": 999,
        "meta_rev_at_epoch": 58552,
        "meta_bstar": 0.0037644522,
        "meta_mean_motion_dot": 9.927e-05,
        "meta_mean_motion_ddot": 0,
        "tle_line1": "1 37081U 99025EFR 25345.18116679  .00009927  00000+0  37645-2 0  9995",
        "tle_line2": "2 37081  98.7080 137.4998 0264254 352.6633   7.0706 14.13829604585528"
      },
      "geometry": {
        "type": "Point",
        "coordinates": [
          116.10084446351408,
          69.63081490958649
        ]
      }
    },
    {
      "type": "Feature",
      "properties": {
        "norad_id": 37400,
        "name": "FENGYUN 1C DEB",
        "group": "fengyun-1c-debris",
        "lat": -58.19885016840673,
        "lon": -159.98583434294653,
        "alt_km": 1319.8384473819979,
        "timestamp": "2025-12-14T05:42:18.749420+00:00",
        "meta_object_name": "FENGYUN 1C DEB",
        "meta_object_id": "1999-025EFS",
        "meta_epoch": "2025-12-13T07:07:28.800768",
        "meta_mean_motion": 13.63645312,
        "meta_eccentricity": 0.04016555,
        "meta_inclination": 98.8378,
        "meta_ra_of_asc_node": 184.6253,
        "meta_arg_of_pericenter": 135.1591,
        "meta_mean_anomaly": 228.2759,
        "meta_ephemeris_type": 0,
        "meta_classification_type": "U",
        "meta_norad_cat_id": 37400,
        "meta_element_set_no": 999,
        "meta_rev_at_epoch": 80201,
        "meta_bstar": 0.00060734109,
        "meta_mean_motion_dot": 7.95e-06,
        "meta_mean_motion_ddot": 0,
        "tle_line1": "1 37400U 99025EFS 25347.29686112  .00000795  00000+0  60734-3 0  9998",
        "tle_line2": "2 37400  98.8378 184.6253 0401655 135.1591 228.2759 13.63645312802014"
      },
      "geometry": {
        "type": "Point",
        "coordinates": [
          -159.98583434294653,
          -58.19885016840673
        ]
      }
    }
  ]
}